{"type": "FeatureCollection", "features": [ {"type": "Feature", "properties": {"norad_id": 44804, "name": "CARTOSAT-3", "group": "resource", "lat": 71.77439758955619, "lon": -98.4289389262091, "alt_km": 496.5964499514221, "timestamp": "2025-12-24T16:52:41.158090+00:00", "meta": {"OBJECT_NAME": "CARTOSAT-3", "OBJECT_ID": "2019-081A", "EPOCH": "2025-12-24T06:55:37.407360", "MEAN_MOTION": 15.19246362, "ECCENTRICITY": 0.0013674, "INCLINATION": 97.4565, "RA_OF_ASC_NODE": 57.724, "ARG_OF_PERICENTER": 47.3431, "MEAN_ANOMALY": 312.8953, "EPHEMERIS_TYPE": 0, "CLASSIFICATION_TYPE": "U", "NORAD_CAT_ID": 44804, "ELEMENT_SET_NO": 999, "REV_AT_EPOCH": 33691, "BSTAR": 0.00018102083, "MEAN_MOTION_DOT": 3.755e-05, "MEAN_MOTION_DDOT": 0}, "tle": {"line1": "1 44804U 19081A   25358.28862740  .00003755  00000+0  18102-3 0  9993", "line2": "2 44804  97.4565  57.7240 0013674  47.3431 312.8953 15.19246362336918"}}, "geometry": {"type": "Point", "coordinates": [-98.4289389262091, 71.77439758955619]}}, {"type": "Feature", "properties": {"norad_id": 44819, "name": "GAOFEN-12 01", "group": "resource", "lat": -6.855588042679228, "lon": 5.616000305667009, "alt_km": 632.5744983917502, "timestamp": "2025-12-24T16:52:41.158100+00:00", "meta": {"OBJECT_NAME": "GAOFEN-12 01", "OBJECT_ID": "2019-082A", "EPOCH": "2025-12-24T07:10:40.863648", "MEAN_MOTION": 14.8067024, "ECCENTRICITY": 0.00021461, "INCLINATION": 97.8125, "RA_OF_ASC_NODE": 4.2766, "ARG_OF_PERICENTER": 181.3088, "MEAN_ANOMALY": 178.812, "EPHEMERIS_TYPE": 0, "CLASSIFICATION_TYPE": "U", "NORAD_CAT_ID": 44819, "ELEMENT_SET_NO": 999, "REV_AT_EPOCH": 32821, "BSTAR": 6.9547666e-05, "MEAN_MOTION_DOT": 4.84e-06, "MEAN_MOTION_DDOT": 0}, "tle": {"line1": "1 44819U 19082A   25358.29908407  .00000484  00000+0  69548-4 0  9999", "line2": "2 44819  97.8125   4.2766 0002146 181.3088 178.8120 14.80670240328212"}}, "geometry": {"type": "Point", "coordinates": [5.616000305667009, -6.855588042679228]}}, {"type": "Feature", "properties": {"norad_id": 44873, "name": "CSG-1", "group": "resource", "lat": 11.472080594788547, "lon": 1.457808958661567, "alt_km": 623.8237401757397, "timestamp": "2025-12-24T16:52:41.158111+00:00", "meta": {"OBJECT_NAME": "CSG-1", "OBJECT_ID": "2019-092A", "EPOCH": "2025-12-24T06:23:59.424864", "MEAN_MOTION": 14.82159281, "ECCENTRICITY": 0.00014751, "INCLINATION": 97.8805, "RA_OF_ASC_NODE": 179.4172, "ARG_OF_PERICENTER": 85.5043, "MEAN_ANOMALY": 274.6338, "EPHEMERIS_TYPE": 0, "CLASSIFICATION_TYPE": "U", "NORAD_CAT_ID": 44873, "ELEMENT_SET_NO": 999, "REV_AT_EPOCH": 32556, "BSTAR": 6.8227097e-05, "MEAN_MOTION_DOT": 4.91e-06, "MEAN_MOTION_DDOT": 0}, "tle": {"line1": "1 44873U 19092A   25358.26666001  .00000491  00000+0  68227-4 0  9999", "line2": "2 44873  97.8805 179.4172 0001475  85.5043 274.6338 14.82159281325563"}}, "geometry": {"type": "Point", "coordinates": [1.457808958661567, 11.472080594788547]}}, {"type": "Feature", "properties": {"norad_id": 46277, "name": "NEMO-HD", "group": "resource", "lat": -46.325730589600624, "lon": 65.27854003245133, "alt_km": 451.3881584785586, "timestamp": "2025-12-24T16:52:41.158122+00:00", "meta": {"OBJECT_NAME": "NEMO-HD", "OBJECT_ID": "2020-061F", "EPOCH": "2025-12-24T06:10:07.257216", "MEAN_MOTION": 15.40557215, "ECCENTRICITY": 0.00011262, "INCLINATION": 97.219, "RA_OF_ASC_NODE": 57.2087, "ARG_OF_PERICENTER": 52.7836, "MEAN_ANOMALY": 307.3513, "EPHEMERIS_TYPE": 0, "CLASSIFICATION_TYPE": "U", "NORAD_CAT_ID": 46277, "ELEMENT_SET_NO": 999, "REV_AT_EPOCH": 29501, "BSTAR": 0.00028953075, "MEAN_MOTION_DOT": 0.00011687, "MEAN_MOTION_DDOT": 0}, "tle": {"line1": "1 46277U 20061F   25358.25702844  .00011687  00000+0  28953-3 0  9992", "line2": "2 46277  97.2190  57.2087 0001126  52.7836 307.3513 15.40557215295010"}}, "geometry": {"type": "Point", "coordinates": [65.27854003245133, -46.325730589600624]}}, {"type": "Feature", "properties": {"norad_id": 46984, "name": "SENTINEL-6A", "group": "resource", "lat": -1.555947398468262, "lon": -41.848082882026176, "alt_km": 1339.5636723590387, "timestamp": "2025-12-24T16:52:41.158132+00:00", "meta": {"OBJECT_NAME": "SENTINEL-6A", "OBJECT_ID": "2020-086A", "EPOCH": "2025-12-23T19:19:13.530144", "MEAN_MOTION": 12.80930767, "ECCENTRICITY": 0.00077496, "INCLINATION": 66.0398, "RA_OF_ASC_NODE": 139.3251, "ARG_OF_PERICENTER": 269.3952, "MEAN_ANOMALY": 90.6175, "EPHEMERIS_TYPE": 0, "CLASSIFICATION_TYPE": "U", "NORAD_CAT_ID": 46984, "ELEMENT_SET_NO": 999, "REV_AT_EPOCH": 23786, "BSTAR": -6.596775e-06, "MEAN_MOTION_DOT": -6.3e-07, "MEAN_MOTION_DDOT": 0}, "tle": {"line1": "1 46984U 20086A   25357.80501771 -.00000063  00000+0 -65968-5 0  9997", "line2": "2 46984  66.0398 139.3251 0007749 269.3952  90.6175 12.80930767237869"}}, "geometry": {"type": "Point", "coordinates": [-41.848082882026176, -1.555947398468262]}}, {"type": "Feature", "properties": {"norad_id": 48079, "name": "GAOFEN-12 02", "group": "resource", "lat": 5.227165623673812, "lon": -8.083617151026662, "alt_km": 628.6577106172663, "timestamp": "2025-12-24T16:52:41.158142+00:00", "meta": {"OBJECT_NAME": "GAOFEN-12 02", "OBJECT_ID": "2021-026A", "EPOCH": "2025-12-24T07:07:23.556288", "MEAN_MOTION": 14.80688279, "ECCENTRICITY": 0.0003565, "INCLINATION": 97.9857, "RA_OF_ASC_NODE": 352.2477, "ARG_OF_PERICENTER": 77.9222, "MEAN_ANOMALY": 282.2389, "EPHEMERIS_TYPE": 0, "CLASSIFICATION_TYPE": "U", "NORAD_CAT_ID": 48079, "ELEMENT_SET_NO": 999, "REV_AT_EPOCH": 25588, "BSTAR": 7.1700666e-05, "MEAN_MOTION_DOT": 4.98e-06, "MEAN_MOTION_DDOT": 0}, "tle": {"line1": "1 48079U 21026A   25358.29680042  .00000498  00000+0  71701-4 0  9993", "line2": "2 48079  97.9857 352.2477 0003565  77.9222 282.2389 14.80688279255888"}}, "geometry": {"type": "Point", "coordinates": [-8.083617151026662, 5.227165623673812]}}, {"type": "Feature", "properties": {"norad_id": 48268, "name": "PLEIADES NEO 3", "group": "resource", "lat": 63.8878253501115, "lon": -92.58254378386059, "alt_km": 617.0088466329553, "timestamp": "2025-12-24T16:52:41.158153+00:00", "meta": {"OBJECT_NAME": "PLEIADES NEO 3", "OBJECT_ID": "2021-034A", "EPOCH": "2025-12-24T06:38:11.931936", "MEAN_MOTION": 14.81670394, "ECCENTRICITY": 0.00013101, "INCLINATION": 97.8946, "RA_OF_ASC_NODE": 70.5522, "ARG_OF_PERICENTER": 90.1017, "MEAN_ANOMALY": 270.0345, "EPHEMERIS_TYPE": 0, "CLASSIFICATION_TYPE": "U", "NORAD_CAT_ID": 48268, "ELEMENT_SET_NO": 999, "REV_AT_EPOCH": 25175, "BSTAR": -5.390172e-05, "MEAN_MOTION_DOT": -4.76e-06, "MEAN_MOTION_DDOT": 0}, "tle": {"line1": "1 48268U 21034A   25358.27652699 -.00000476  00000+0 -53902-4 0  9998", "line2": "2 48268  97.8946  70.5522 0001310  90.1017 270.0345 14.81670394251751"}}, "geometry": {"type": "Point", "coordinates": [-92.58254378386059, 63.8878253501115]}}, {"type": "Feature", "properties": {"norad_id": 49070, "name": "PLEIADES NEO 4", "group": "resource", "lat": -63.931369147194566, "lon": 87.4462216583386, "alt_km": 632.1261022957397, "timestamp": "2025-12-24T16:52:41.158163+00:00", "meta": {"OBJECT_NAME": "PLEIADES NEO 4", "OBJECT_ID": "2021-073E", "EPOCH": "2025-12-24T05:49:33.460896", "MEAN_MOTION": 14.8167211, "ECCENTRICITY": 0.00013459, "INCLINATION": 97.8946, "RA_OF_ASC_NODE": 70.5151, "ARG_OF_PERICENTER": 92.647, "MEAN_ANOMALY": 267.4897, "EPHEMERIS_TYPE": 0, "CLASSIFICATION_TYPE": "U", "NORAD_CAT_ID": 49070, "ELEMENT_SET_NO": 999, "REV_AT_EPOCH": 23546, "BSTAR": 1.7928738e-05, "MEAN_MOTION_DOT": 8.9e-07, "MEAN_MOTION_DDOT": 0}, "tle": {"line1": "1 49070U 21073E   25358.24274839  .00000089  00000+0  17929-4 0  9993", "line2": "2 49070  97.8946  70.5151 0001345  92.6470 267.4897 14.81672110235469"}}, "geometry": {"type": "Point", "coordinates": [87.4462216583386, -63.931369147194566]}}, {"type": "Feature", "properties": {"norad_id": 49260, "name": "LANDSAT 9", "group": "resource", "lat": -24.533664558916186, "lon": 70.41742609623054, "alt_km": 708.4189020214781, "timestamp": "2025-12-24T16:52:41.158173+00:00", "meta": {"OBJECT_NAME": "LANDSAT 9", "OBJECT_ID": "2021-088A", "EPOCH": "2025-12-24T03:48:25.628544", "MEAN_MOTION": 14.57109202, "ECCENTRICITY": 0.00011048, "INCLINATION": 98.2079, "RA_OF_ASC_NODE": 66.1034, "ARG_OF_PERICENTER": 93.1257, "MEAN_ANOMALY": 267.0068, "EPHEMERIS_TYPE": 0, "CLASSIFICATION_TYPE": "U", "NORAD_CAT_ID": 49260, "ELEMENT_SET_NO": 999, "REV_AT_EPOCH": 22551, "BSTAR": 0.00010495099, "MEAN_MOTION_DOT": 4.28e-06, "MEAN_MOTION_DDOT": 0}, "tle": {"line1": "1 49260U 21088A   25358.15862996  .00000428  00000+0  10495-3 0  9994", "line2": "2 49260  98.2079  66.1034 0001104  93.1257 267.0068 14.57109202225516"}}, "geometry": {"type": "Point", "coordinates": [70.41742609623054, -24.533664558916186]}}, {"type": "Feature", "properties": {"norad_id": 51444, "name": "CSG-2", "group": "resource", "lat": -11.754805075914524, "lon": -178.502851199876, "alt_km": 627.0025446926538, "timestamp": "2025-12-24T16:52:41.158183+00:00", "meta": {"OBJECT_NAME": "CSG-2", "OBJECT_ID": "2022-008A", "EPOCH": "2025-12-24T07:12:35.964000", "MEAN_MOTION": 14.82153656, "ECCENTRICITY": 0.00014944, "INCLINATION": 97.8803, "RA_OF_ASC_NODE": 179.449, "ARG_OF_PERICENTER": 82.2721, "MEAN_ANOMALY": 277.8662, "EPHEMERIS_TYPE": 0, "CLASSIFICATION_TYPE": "U", "NORAD_CAT_ID": 51444, "ELEMENT_SET_NO": 999, "REV_AT_EPOCH": 21068, "BSTAR": 3.210431e-06, "MEAN_MOTION_DOT": -2.7e-07, "MEAN_MOTION_DDOT": 0}, "tle": {"line1": "1 51444U 22008A   25358.30041625 -.00000027  00000+0  32104-5 0  9998", "line2": "2 51444  97.8803 179.4490 0001494  82.2721 277.8662 14.82153656210685"}}, "geometry": {"type": "Point", "coordinates": [-178.502851199876, -11.754805075914524]}}]}